[{"OBJECT_NAME":"SKYCRAFT-4A","OBJECT_ID":"2025-154J","EPOCH":"2026-03-09T16:59:51.135072","MEAN_MOTION":14.95268947,"ECCENTRICITY":0.00048742,"INCLINATION":97.6797,"RA_OF_ASC_NODE":135.107,"ARG_OF_PERICENTER":223.0221,"MEAN_ANOMALY":137.062,"EPHEMERIS_TYPE":0,"CLASSIFICATION_TYPE":"U","NORAD_CAT_ID":64897,"ELEMENT_SET_NO":999,"REV_AT_EPOCH":3251,"BSTAR":0.00074813792,"MEAN_MOTION_DOT":8.187e-5,"MEAN_MOTION_DDOT":0},{"OBJECT_NAME":"CZ-4 DEB","OBJECT_ID":"2007-042E","EPOCH":"2026-03-09T05:05:13.801056","MEAN_MOTION":14.89671222,"ECCENTRICITY":0.00640153,"INCLINATION":98.6325,"RA_OF_ASC_NODE":167.9775,"ARG_OF_PERICENTER":42.5531,"MEAN_ANOMALY":318.0619,"EPHEMERIS_TYPE":0,"CLASSIFICATION_TYPE":"U","NORAD_CAT_ID":35397,"ELEMENT_SET_NO":999,"REV_AT_EPOCH":97028,"BSTAR":0.0012361728,"MEAN_MOTION_DOT":0.00012236,"MEAN_MOTION_DDOT":0}]
